COSMOS 2407             
1 28380U 04028A   26188.07885093  .00000041  00000+0  26134-4 0  9994
2 28380  82.9593  60.1004 0038765 194.8147 330.2282 13.76336192102614
COSMOS 2414             
1 28521U 05002A   26188.00130943  .00000045  00000+0  24787-4 0  9990
2 28521  82.9487  28.6554 0038672 273.0753  86.5986 13.87927685 86564
INMARSAT 4-F1           
1 28628U 05009A   26187.46363220  .00000044  00000+0  00000+0 0  9996
2 28628   5.1927  42.7722 0002741  67.1906 159.4982  1.00271311 77861
SJ-7                    
1 28737U 05024A   26188.01533510  .00005842  00000+0  25955-3 0  9998
2 28737  97.7280 218.6551 0014202 328.0430  31.9943 15.21855512151044
CUBESAT XI-V            
1 28895U 05043F   26187.90288029  .00001301  00000+0  21205-3 0  9993
2 28895  98.3006 343.9413 0014934 139.5987 220.6332 14.72686848104658
HINODE (SOLAR-B)        
1 29479U 06041A   26187.94345450  .00000618  00000+0  11454-3 0  9992
2 29479  98.0546 203.8046 0016435 221.6643 138.3312 14.68650644 57772
SHIJIAN-6 02B (SJ-6 02B)
1 29506U 06046B   26188.20682162  .00001438  00000+0  11593-3 0  9997
2 29506  97.7149 217.1419 0014388   2.4927 357.6367 15.01428691 73749
DMSP 5D-3 F17 (USA 191) 
1 29522U 06050A   26188.18097193  .00000039  00000+0  42632-4 0  9996
2 29522  98.7382 194.3421 0010199   5.9608 354.1685 14.14995859 15251
LAPAN-TUBSAT            
1 29709U 07001A   26188.18628193  .00000153  00000+0  24158-4 0  9990
2 29709  98.1353 187.8621 0013405 117.1256 243.1327 14.85971242 54124
HAIYANG-1B              
1 31113U 07010A   26187.93219360  .00000080  00000+0  46330-4 0  9991
2 31113  98.3506 169.0126 0014300 138.6913 221.5354 14.31031817  3460
COSMO-SKYMED 2          
1 32376U 07059A   26188.14413995  .00000332  00000+0  48243-4 0  9995
2 32376  97.8891  11.4530 0001348  91.9165 268.2202 14.82162098  4968
CARTOSAT-2A             
1 32783U 08021A   26188.20412426  .00000335  00000+0  51701-4 0  9998
2 32783  97.7618 236.2289 0013003  51.0455 309.1913 14.79269206981765
CUTE-1.7+APD II (CO-65) 
1 32785U 08021C   26188.13474029  .00003527  00000+0  22322-3 0  9991
2 32785  97.8289 169.9714 0007586 332.5664  27.5163 15.09652011988203
SEEDS II (CO-66)        
1 32791U 08021J   26187.97759588  .00013488  00000+0  41928-3 0  9995
2 32791  97.7526 186.8299 0002095 175.3299 184.7963 15.33467667990324
YUBILEINY (RS30)        
1 32953U 08025A   26188.21797881 -.00000003  00000+0 -92788-4 0  9997
2 32953  82.5058 342.9784 0018509 267.5565  92.3396 12.43180169822186
FENGYUN 3A              
1 32958U 08026A   26187.85317918  .00000070  00000+0  53635-4 0  9991
2 32958  98.6885 128.3188 0009864  73.3980 286.8279 14.19575331938192
HUANJING 1A (HJ-1A)     
1 33320U 08041A   26188.19199670  .00002190  00000+0  26797-3 0  9996
2 33320  97.6696 173.2581 0020678  74.0271 286.3219 14.84040050961370
HUANJING 1B (HJ-1B)     
1 33321U 08041B   26188.23769269  .00000883  00000+0  11263-3 0  9998
2 33321  97.6532 176.4128 0037660 116.2519 244.2573 14.83355001961386
SHIJIAN-6 03A (SJ-6 03A)
1 33408U 08053A   26188.22946100  .00003600  00000+0  18377-3 0  9990
2 33408  97.8401 222.2478 0009827 307.8486  52.1857 15.17368194966002
SHIJIAN-6 03B (SJ-6 03B)
1 33409U 08053B   26188.18764025  .00001843  00000+0  13627-3 0  9990
2 33409  97.8578 208.4101 0018661 338.6470  21.3975 15.04371492965759
CHUANGXIN 1-02 (CX-1-02)
1 33434U 08056B   26188.23681523  .00000079  00000+0  47528-4 0  9996
2 33434  98.6128 214.3033 0015524  82.1033 278.1911 14.30157654921482
STARS (KUKAI)           
1 33498U 09002G   26188.08660279  .00002829  00000+0  25830-3 0  9992
2 33498  98.1558 136.2095 0010274 101.5291 258.7083 14.95897066941455
